#cP2019 12  1  0  0  0.00000000      96   u+U IGb08 FIT  WHU
## 2082      0.00000000   900.00000000 58818     0.000000000
+   89   G01G02G03G05G06G08G09G10G11G12G13G14G15G16G17G18G19
+        G20G21G22G23G24G25G26G27G28G29G30G31G32R01R02R03R05
+        R07R08R09R11R12R13R14R15R16R17R18R19R20R21R22R23C01
+        C02C03C04C05C06C07C08C09C10C11C12C13C14C16E01E02E03
+        E04E05E07E08E09E11E12E13E14E15E18E19E21E24E25E26E27
+        E30E31E33E36  0  0  0  0  0  0  0  0  0  0  0  0  0
+          0  0  0  0  0  0  0  0  0  0  0  0  0  0  0  0  0
+          0  0  0  0  0  0  0  0  0  0  0  0  0  0  0  0  0
+          0  0  0  0  0  0  0  0  0  0  0  0  0  0  0  0  0
+          0  0  0  0  0  0  0  0  0  0  0  0  0  0  0  0  0
++         4  4  4  4  4  4  4  4  4  4  4  4  4  4  4  4  4
++         4  4  4  4  4  4  4  4  4  4  4  4  4  4  4  4  4
++         4  4  3  4  4  3  4  4  4  3  4  4  4  4  4  4  7
++         7  7  7  7  4  4  4  4  4  3  4  4  4  4  2  3  2
++         2  2  2  2  3  2  2  2  3  2  2  2  2  2  2  1  2
++         2  2  2  2  0  0  0  0  0  0  0  0  0  0  0  0  0
++         0  0  0  0  0  0  0  0  0  0  0  0  0  0  0  0  0
++         0  0  0  0  0  0  0  0  0  0  0  0  0  0  0  0  0
++         0  0  0  0  0  0  0  0  0  0  0  0  0  0  0  0  0
++         0  0  0  0  0  0  0  0  0  0  0  0  0  0  0  0  0
%c M  cc GPS ccc cccc cccc cccc cccc ccccc ccccc ccccc ccccc
%c cc cc ccc ccc cccc cccc cccc cccc ccccc ccccc ccccc ccccc
%f  1.2500000  1.025000000  0.00000000000  0.000000000000000
%f  0.0000000  0.000000000  0.00000000000  0.000000000000000
%i    0    0    0    0      0      0      0      0         0
%i    0    0    0    0      0      0      0      0         0
/* GNSS RESEARCH CENTER, WUHAN UNIVERSITY (WHU), P. R. CHINA
/* POSITION AND NAVIGATION DATA ANALYST (PANDA) SOFTWARE    
/* PCV:IGS08_2080 OL/AL:FES2004  NONE     NN ORB:CoM CLK:CoN
/*
*  2019 12  1  1  0  0.00000000
PG01   1183.914769 -15757.075822 -21497.193542   -214.901616
PG02 -20542.308869  15051.725237   7944.491613   -357.413555
PG03  -9680.731947 -20672.494979 -13712.201404    -45.173822
PG05  -9943.864806  11718.212409  21525.926654     -4.109358
PG06 -25477.534628   5595.576532  -5035.053299   -140.059027
PG08   5761.886010 -25714.349220   2156.460249    -15.177654
PG09  -8588.309287 -19094.861977  16280.684239    -96.853195
PG10  22563.223875   9273.591878 -10711.431512   -155.079653
PG11   1482.088749 -20715.278786 -17227.750129   -432.562745
PG12   4112.561278  20073.792925 -17211.518966    177.982100
PG13 -12992.391511  21369.428447   8709.687724    -29.521170
PG14  15889.945580 -10458.362626 -18133.279418    -47.449593
PG15  -2783.679833  26170.172632    947.026401   -268.880491
PG16  12036.109509  -8654.952808  21868.329996    -98.442891
PG17 -14561.252382  -1267.028306 -21747.946435    172.650016
PG18   9640.318661 -17654.633183 -17801.851182    103.723082
PG19 -16069.733198   6660.950256 -20369.527179   -232.496281
PG20  22491.955287  14328.268086   -271.687820    527.581566
PG21  18755.892834   6226.056468  18438.954722    -77.828537
PG22  -2831.076862 -18871.937401 -18296.063261   -775.010429
PG23  -2735.418128 -24736.790648   9051.560706   -152.333615
PG24  -2766.440746  17211.546207 -20122.805709     -5.609716
PG25  16778.674072  19880.852700  -6225.036817    -17.403875
PG26  19109.124274  -1671.389571  18438.230292     95.885716
PG27  12175.457741 -19663.318587  12657.428039   -136.455555
PG28 -21131.172611 -10631.974167 -11344.515839    752.752561
PG29   5931.003196  20226.114894  16116.564176     30.302791
PG30 -23976.211046  -1291.219059  11596.681444    -95.720571
PG31  25869.208298  -6556.148296  -2624.747120     -6.763620
PG32  15379.599857    420.506498 -21582.243160    141.679311
PR01 -12586.202009  -2880.022714  21994.163343     53.438430
PR02  -2847.779294  17428.829527  18462.270054    400.284987
PR03   7364.612897  24212.039275   3432.188774      5.707558
PR05  11562.123631    380.307707 -22734.482647     40.373775
PR07  -7642.479343 -24149.451463  -2792.003121    -30.144111
PR08 -13295.907128 -17110.284038  13490.455438     14.077930
PR09   8529.435503  -9523.678344  22078.676958    103.871668
PR11 -22709.782406  -7916.567879   8583.390665     18.188562
PR12 -24151.367123    -50.877927  -8138.385292     83.901736
PR13 -11490.468733   8384.016255 -21186.198274    -31.679130
PR14   7581.019250  11622.008263 -21385.626513     45.590349
PR15  22251.741028   8212.592001  -9368.288140    104.953875
PR16  24129.434815   -600.445635   8422.465692     -0.171725
PR17  -4545.694937  18004.812371  17478.550214    280.112150
PR18   8556.325353   6132.465455  23251.990554     16.370533
PR19  17304.715310  -8498.497360  16713.395152    -66.662595
PR20  16267.051074 -19572.397955  -1398.951706   -397.653440
PR21   4050.658525 -17627.231728 -17997.918941    -88.695419
PR22 -10636.475269  -3350.691630 -22942.337815     -3.633252
PR23 -18185.474524  13426.855360 -11815.293209    270.226196
PC01 -32321.132620  27060.806237   -577.956469    204.844075
PC02   4455.198490  41925.677076   1074.292788    705.424871
PC03 -14817.420243  39498.571402    519.748683     83.325148
PC04 -39604.040470  14419.836809   -199.455897   -425.637829
PC05  21909.461234  36032.518617   1239.815901   -167.328301
PC06 -15065.613217  38134.504864  11028.895100    300.346423
PC07 -11529.357848  23527.525646 -32811.170883    201.774108
PC08 -24769.803574  24562.013311  23537.655644    -44.908986
PC09  -5530.090259  41627.062005  -5290.358873    154.716090
PC10   5198.724121  30770.764189 -28007.792925   -417.610098
PC11 -18306.031685   5058.461819 -20359.557730    -33.677772
PC12  -8748.995188 -14384.244091 -22223.348660    302.643185
PC13  -8588.698432  26031.268004  32029.884138    133.286762
PC14 -19355.751290  -5630.223728  19340.436338    345.064010
PC16 -12492.695617  39531.223241   8222.267735   -938.182366
PE01  27818.684770   9735.679991   2774.998885   -742.945738
PE02 -27815.745458  -9693.866701  -2830.108221     95.583832
PE03 -17090.982160  -9621.631541  22165.791897   -238.871165
PE04  14502.576437 -12702.132270 -22464.521450   -416.254614
PE05  -9688.245996 -26523.894327   8874.555040   -426.702260
PE07  -3329.477245  27823.402110   9519.821046   -306.509077
PE08 -14207.250758  12962.303759  22492.185882   6255.629271
PE09   3029.051714 -27877.552777  -9505.884405   6235.842640
PE11  13034.115732 -22246.776060 -14533.623100    184.109177
PE12  24785.705094 -15598.055737   4287.450623   6073.765968
PE13 -13126.477455  22275.037392  14416.399131    395.921008
PE14 -21168.348954   2194.921929 -24394.098583   -813.922703
PE15 -24632.998404  15907.572481  -4005.885814    885.962265
PE18  15691.760840  -9073.878200  15628.570448   -909.338877
PE19  16656.505777  11905.592253 -21382.328821     -2.654587
PE21  17445.444141  18337.442774 -15346.076019   -568.840495
PE24   3355.533757 -16294.677898  24477.078881   5739.578751
PE25 -17347.909461 -18362.672704  15438.357430   -497.225180
PE26   6310.521186  15623.969892  24342.254089   3815.855218
PE27  -3266.144109  16259.306365 -24509.153801    334.546777
PE30 -22055.600091   4531.807659 -19208.311164   4341.793301
PE31  21993.617502  -4653.893798  19269.989362   -470.730766
PE33  21713.294018   -185.976501  20127.618257   -471.655670
PE36  -6083.778627 -15592.506934 -24404.950084    630.063218
EOF

